{"type": "FeatureCollection", "features": [ {"type": "Feature", "properties": {"norad_id": 32110, "name": "FENGYUN 1C DEB", "group": "fengyun-1c-debris", "lat": 55.75747235120875, "lon": 157.7004416274928, "alt_km": 790.6221228006425, "timestamp": "2025-12-27T10:28:59.080079+00:00", "meta": {"OBJECT_NAME": "FENGYUN 1C DEB", "OBJECT_ID": "1999-025CRC", "EPOCH": "2025-12-22T23:22:37.139808", "MEAN_MOTION": 14.28961563, "ECCENTRICITY": 0.00335496, "INCLINATION": 99.5437, "RA_OF_ASC_NODE": 167.13, "ARG_OF_PERICENTER": 337.3668, "MEAN_ANOMALY": 174.1359, "EPHEMERIS_TYPE": 0, "CLASSIFICATION_TYPE": "U", "NORAD_CAT_ID": 32110, "ELEMENT_SET_NO": 999, "REV_AT_EPOCH": 64534, "BSTAR": 0.0014667226, "MEAN_MOTION_DOT": 3.68e-05, "MEAN_MOTION_DDOT": 0}, "tle": {"line1": "1 32110U 99025CRC 25356.97404097  .00003680  00000+0  14667-2 0  9995", "line2": "2 32110  99.5437 167.1300 0033549 337.3668 174.1359 14.28961563645341"}}, "geometry": {"type": "Point", "coordinates": [157.7004416274928, 55.75747235120875]}}, {"type": "Feature", "properties": {"norad_id": 32111, "name": "FENGYUN 1C DEB", "group": "fengyun-1c-debris", "lat": -14.120219012527999, "lon": 178.62483331975614, "alt_km": 718.258534898132, "timestamp": "2025-12-27T10:28:59.080090+00:00", "meta": {"OBJECT_NAME": "FENGYUN 1C DEB", "OBJECT_ID": "1999-025CRD", "EPOCH": "2025-12-26T23:38:42.986400", "MEAN_MOTION": 14.31561626, "ECCENTRICITY": 0.0120451, "INCLINATION": 98.4439, "RA_OF_ASC_NODE": 0.3271, "ARG_OF_PERICENTER": 162.6715, "MEAN_ANOMALY": 224.8342, "EPHEMERIS_TYPE": 0, "CLASSIFICATION_TYPE": "U", "NORAD_CAT_ID": 32111, "ELEMENT_SET_NO": 999, "REV_AT_EPOCH": 96235, "BSTAR": 0.00020672, "MEAN_MOTION_DOT": 5.52e-06, "MEAN_MOTION_DDOT": 0}, "tle": {"line1": "1 32111U 99025CRD 25360.98521975  .00000552  00000+0  20672-3 0  9996", "line2": "2 32111  98.4439   0.3271 0120451 162.6715 224.8342 14.31561626962356"}}, "geometry": {"type": "Point", "coordinates": [178.62483331975614, -14.120219012527999]}}, {"type": "Feature", "properties": {"norad_id": 32113, "name": "FENGYUN 1C DEB", "group": "fengyun-1c-debris", "lat": -72.86811013135888, "lon": 66.93863907436729, "alt_km": 940.6810713249997, "timestamp": "2025-12-27T10:28:59.080100+00:00", "meta": {"OBJECT_NAME": "FENGYUN 1C DEB", "OBJECT_ID": "1999-025CRF", "EPOCH": "2025-12-22T20:39:08.544384", "MEAN_MOTION": 13.9458115, "ECCENTRICITY": 0.0238461, "INCLINATION": 99.0255, "RA_OF_ASC_NODE": 31.4218, "ARG_OF_PERICENTER": 198.943, "MEAN_ANOMALY": 160.2746, "EPHEMERIS_TYPE": 0, "CLASSIFICATION_TYPE": "U", "NORAD_CAT_ID": 32113, "ELEMENT_SET_NO": 999, "REV_AT_EPOCH": 63027, "BSTAR": 0.0006327, "MEAN_MOTION_DOT": 1.027e-05, "MEAN_MOTION_DDOT": 0}, "tle": {"line1": "1 32113U 99025CRF 25356.86051556  .00001027  00000+0  63270-3 0  9992", "line2": "2 32113  99.0255  31.4218 0238461 198.9430 160.2746 13.94581150630270"}}, "geometry": {"type": "Point", "coordinates": [66.93863907436729, -72.86811013135888]}}, {"type": "Feature", "properties": {"norad_id": 32114, "name": "FENGYUN 1C DEB", "group": "fengyun-1c-debris", "lat": 78.29356345073607, "lon": -0.4481349965974161, "alt_km": 657.5961755106418, "timestamp": "2025-12-27T10:28:59.080112+00:00", "meta": {"OBJECT_NAME": "FENGYUN 1C DEB", "OBJECT_ID": "1999-025CRG", "EPOCH": "2025-12-06T13:19:21.641376", "MEAN_MOTION": 14.76489439, "ECCENTRICITY": 0.00447682, "INCLINATION": 99.9287, "RA_OF_ASC_NODE": 96.1919, "ARG_OF_PERICENTER": 3.5911, "MEAN_ANOMALY": 356.5605, "EPHEMERIS_TYPE": 0, "CLASSIFICATION_TYPE": "U", "NORAD_CAT_ID": 32114, "ELEMENT_SET_NO": 999, "REV_AT_EPOCH": 65638, "BSTAR": 0.0040574802, "MEAN_MOTION_DOT": 0.0002877, "MEAN_MOTION_DDOT": 0}, "tle": {"line1": "1 32114U 99025CRG 25340.55511159  .00028770  00000+0  40575-2 0  9998", "line2": "2 32114  99.9287  96.1919 0044768   3.5911 356.5605 14.76489439656383"}}, "geometry": {"type": "Point", "coordinates": [-0.4481349965974161, 78.29356345073607]}}, {"type": "Feature", "properties": {"norad_id": 32117, "name": "FENGYUN 1C DEB", "group": "fengyun-1c-debris", "lat": -21.912564507213375, "lon": 49.964987302300536, "alt_km": 811.1131665072635, "timestamp": "2025-12-27T10:28:59.080124+00:00", "meta": {"OBJECT_NAME": "FENGYUN 1C DEB", "OBJECT_ID": "1999-025CRK", "EPOCH": "2025-12-27T02:09:18.038304", "MEAN_MOTION": 14.24005143, "ECCENTRICITY": 0.0026751, "INCLINATION": 98.6104, "RA_OF_ASC_NODE": 46.1309, "ARG_OF_PERICENTER": 50.8873, "MEAN_ANOMALY": 309.4679, "EPHEMERIS_TYPE": 0, "CLASSIFICATION_TYPE": "U", "NORAD_CAT_ID": 32117, "ELEMENT_SET_NO": 999, "REV_AT_EPOCH": 95001, "BSTAR": 0.001118, "MEAN_MOTION_DOT": 2.534e-05, "MEAN_MOTION_DDOT": 0}, "tle": {"line1": "1 32117U 99025CRK 25361.08979211  .00002534  00000+0  11180-2 0  9999", "line2": "2 32117  98.6104  46.1309 0026751  50.8873 309.4679 14.24005143950016"}}, "geometry": {"type": "Point", "coordinates": [49.964987302300536, -21.912564507213375]}}, {"type": "Feature", "properties": {"norad_id": 32119, "name": "FENGYUN 1C DEB", "group": "fengyun-1c-debris", "lat": -33.459954345210654, "lon": -128.18380928427246, "alt_km": 846.959808725147, "timestamp": "2025-12-27T10:28:59.080136+00:00", "meta": {"OBJECT_NAME": "FENGYUN 1C DEB", "OBJECT_ID": "1999-025CRM", "EPOCH": "2025-12-21T09:08:50.463168", "MEAN_MOTION": 14.02839478, "ECCENTRICITY": 0.00860891, "INCLINATION": 99.8866, "RA_OF_ASC_NODE": 218.6288, "ARG_OF_PERICENTER": 29.2524, "MEAN_ANOMALY": 331.342, "EPHEMERIS_TYPE": 0, "CLASSIFICATION_TYPE": "U", "NORAD_CAT_ID": 32119, "ELEMENT_SET_NO": 999, "REV_AT_EPOCH": 93849, "BSTAR": 0.00056371909, "MEAN_MOTION_DOT": 8.5e-06, "MEAN_MOTION_DDOT": 0}, "tle": {"line1": "1 32119U 99025CRM 25355.38113962  .00000850  00000+0  56372-3 0  9992", "line2": "2 32119  99.8866 218.6288 0086089  29.2524 331.3420 14.02839478938499"}}, "geometry": {"type": "Point", "coordinates": [-128.18380928427246, -33.459954345210654]}}, {"type": "Feature", "properties": {"norad_id": 32123, "name": "FENGYUN 1C DEB", "group": "fengyun-1c-debris", "lat": 79.1530838790919, "lon": 45.692993757517954, "alt_km": 779.8290459180807, "timestamp": "2025-12-27T10:28:59.080146+00:00", "meta": {"OBJECT_NAME": "FENGYUN 1C DEB", "OBJECT_ID": "1999-025CRR", "EPOCH": "2025-12-26T17:41:38.567616", "MEAN_MOTION": 14.6151274, "ECCENTRICITY": 0.01594685, "INCLINATION": 98.9414, "RA_OF_ASC_NODE": 169.6841, "ARG_OF_PERICENTER": 250.0973, "MEAN_ANOMALY": 128.4507, "EPHEMERIS_TYPE": 0, "CLASSIFICATION_TYPE": "U", "NORAD_CAT_ID": 32123, "ELEMENT_SET_NO": 999, "REV_AT_EPOCH": 71579, "BSTAR": 0.00037604754, "MEAN_MOTION_DOT": 2.169e-05, "MEAN_MOTION_DDOT": 0}, "tle": {"line1": "1 32123U 99025CRR 25360.73725194  .00002169  00000+0  37605-3 0  9991", "line2": "2 32123  98.9414 169.6841 0159468 250.0973 128.4507 14.61512740715799"}}, "geometry": {"type": "Point", "coordinates": [45.692993757517954, 79.1530838790919]}}, {"type": "Feature", "properties": {"norad_id": 32125, "name": "FENGYUN 1C DEB", "group": "fengyun-1c-debris", "lat": -20.86308590462309, "lon": -13.106853408885678, "alt_km": 605.2995916107393, "timestamp": "2025-12-27T10:28:59.080157+00:00", "meta": {"OBJECT_NAME": "FENGYUN 1C DEB", "OBJECT_ID": "1999-025CRT", "EPOCH": "2025-12-23T16:44:51.530496", "MEAN_MOTION": 14.70223503, "ECCENTRICITY": 0.01727232, "INCLINATION": 99.0646, "RA_OF_ASC_NODE": 339.2508, "ARG_OF_PERICENTER": 289.2149, "MEAN_ANOMALY": 69.0435, "EPHEMERIS_TYPE": 0, "CLASSIFICATION_TYPE": "U", "NORAD_CAT_ID": 32125, "ELEMENT_SET_NO": 999, "REV_AT_EPOCH": 70684, "BSTAR": 0.0023171985, "MEAN_MOTION_DOT": 0.00017568, "MEAN_MOTION_DDOT": 0}, "tle": {"line1": "1 32125U 99025CRT 25357.69781864  .00017568  00000+0  23172-2 0  9992", "line2": "2 32125  99.0646 339.2508 0172723 289.2149  69.0435 14.70223503706845"}}, "geometry": {"type": "Point", "coordinates": [-13.106853408885678, -20.86308590462309]}}, {"type": "Feature", "properties": {"norad_id": 32126, "name": "FENGYUN 1C DEB", "group": "fengyun-1c-debris", "lat": -61.63524849158837, "lon": 39.141241768714885, "alt_km": 864.5463469210254, "timestamp": "2025-12-27T10:28:59.080169+00:00", "meta": {"OBJECT_NAME": "FENGYUN 1C DEB", "OBJECT_ID": "1999-025CRU", "EPOCH": "2025-12-14T22:11:18.681792", "MEAN_MOTION": 13.56802944, "ECCENTRICITY": 0.02807648, "INCLINATION": 99.1097, "RA_OF_ASC_NODE": 224.8335, "ARG_OF_PERICENTER": 249.9124, "MEAN_ANOMALY": 107.16, "EPHEMERIS_TYPE": 0, "CLASSIFICATION_TYPE": "U", "NORAD_CAT_ID": 32126, "ELEMENT_SET_NO": 999, "REV_AT_EPOCH": 61744, "BSTAR": 0.001056147, "MEAN_MOTION_DOT": 9.24e-06, "MEAN_MOTION_DDOT": 0}, "tle": {"line1": "1 32126U 99025CRU 25348.92452178  .00000924  00000+0  10561-2 0  9998", "line2": "2 32126  99.1097 224.8335 0280764 249.9124 107.1600 13.56802944617445"}}, "geometry": {"type": "Point", "coordinates": [39.141241768714885, -61.63524849158837]}}, {"type": "Feature", "properties": {"norad_id": 32128, "name": "FENGYUN 1C DEB", "group": "fengyun-1c-debris", "lat": 0.2544201385537691, "lon": 47.33407387447524, "alt_km": 1206.2306669813606, "timestamp": "2025-12-27T10:28:59.080179+00:00", "meta": {"OBJECT_NAME": "FENGYUN 1C DEB", "OBJECT_ID": "1999-025CRW", "EPOCH": "2025-12-26T20:42:10.497600", "MEAN_MOTION": 13.94265017, "ECCENTRICITY": 0.0397506, "INCLINATION": 99.0297, "RA_OF_ASC_NODE": 46.8116, "ARG_OF_PERICENTER": 184.1472, "MEAN_ANOMALY": 175.6362, "EPHEMERIS_TYPE": 0, "CLASSIFICATION_TYPE": "U", "NORAD_CAT_ID": 32128, "ELEMENT_SET_NO": 999, "REV_AT_EPOCH": 63182, "BSTAR": 0.00075033, "MEAN_MOTION_DOT": 1.879e-05, "MEAN_MOTION_DDOT": 0}, "tle": {"line1": "1 32128U 99025CRW 25360.86262150  .00001879  00000+0  75033-3 0  9992", "line2": "2 32128  99.0297  46.8116 0397506 184.1472 175.6362 13.94265017631825"}}, "geometry": {"type": "Point", "coordinates": [47.33407387447524, 0.2544201385537691]}}]}